{
  "type": "FeatureCollection",
  "features": [
    {
      "type": "Feature",
      "properties": {
        "norad_id": 30073,
        "name": "FENGYUN 1C DEB",
        "group": "fengyun-1c-debris",
        "lat": 14.36582342003478,
        "lon": -28.29351849479064,
        "alt_km": 855.8860048448041,
        "timestamp": "2025-12-26T04:40:06.060094+00:00",
        "meta_object_name": "FENGYUN 1C DEB",
        "meta_object_id": "1999-025QA",
        "meta_epoch": "2025-12-24T22:26:59.088768",
        "meta_mean_motion": 14.18735293,
        "meta_eccentricity": 0.005284,
        "meta_inclination": 99.4127,
        "meta_ra_of_asc_node": 332.806,
        "meta_arg_of_pericenter": 246.1009,
        "meta_mean_anomaly": 180.8201,
        "meta_ephemeris_type": 0,
        "meta_classification_type": "U",
        "meta_norad_cat_id": 30073,
        "meta_element_set_no": 999,
        "meta_rev_at_epoch": 97098,
        "meta_bstar": 0.0014517,
        "meta_mean_motion_dot": 3.008e-05,
        "meta_mean_motion_ddot": 0,
        "tle_line1": "1 30073U 99025QA  25358.93540612  .00003008  00000+0  14517-2 0  9991",
        "tle_line2": "2 30073  99.4127 332.8060 0052840 246.1009 180.8201 14.18735293970986"
      },
      "geometry": {
        "type": "Point",
        "coordinates": [
          -28.29351849479064,
          14.36582342003478
        ]
      }
    },
    {
      "type": "Feature",
      "properties": {
        "norad_id": 30074,
        "name": "FENGYUN 1C DEB",
        "group": "fengyun-1c-debris",
        "lat": -28.271420532260514,
        "lon": -118.26883359412892,
        "alt_km": 859.509865765227,
        "timestamp": "2025-12-26T04:40:06.060104+00:00",
        "meta_object_name": "FENGYUN 1C DEB",
        "meta_object_id": "1999-025QB",
        "meta_epoch": "2025-12-21T03:01:28.048512",
        "meta_mean_motion": 14.12895962,
        "meta_eccentricity": 0.00969654,
        "meta_inclination": 99.1289,
        "meta_ra_of_asc_node": 61.526,
        "meta_arg_of_pericenter": 128.6907,
        "meta_mean_anomaly": 232.2986,
        "meta_ephemeris_type": 0,
        "meta_classification_type": "U",
        "meta_norad_cat_id": 30074,
        "meta_element_set_no": 999,
        "meta_rev_at_epoch": 96780,
        "meta_bstar": 0.0010443796,
        "meta_mean_motion_dot": 1.987e-05,
        "meta_mean_motion_ddot": 0,
        "tle_line1": "1 30074U 99025QB  25355.12601908  .00001987  00000+0  10444-2 0  9995",
        "tle_line2": "2 30074  99.1289  61.5260 0096965 128.6907 232.2986 14.12895962967801"
      },
      "geometry": {
        "type": "Point",
        "coordinates": [
          -118.26883359412892,
          -28.271420532260514
        ]
      }
    },
    {
      "type": "Feature",
      "properties": {
        "norad_id": 30075,
        "name": "FENGYUN 1C DEB",
        "group": "fengyun-1c-debris",
        "lat": 36.0337192220511,
        "lon": 43.75496413976235,
        "alt_km": 932.985412053803,
        "timestamp": "2025-12-26T04:40:06.060115+00:00",
        "meta_object_name": "FENGYUN 1C DEB",
        "meta_object_id": "1999-025QC",
        "meta_epoch": "2025-12-25T02:45:57.176640",
        "meta_mean_motion": 13.92537822,
        "meta_eccentricity": 0.00914713,
        "meta_inclination": 99.3598,
        "meta_ra_of_asc_node": 49.5557,
        "meta_arg_of_pericenter": 143.8132,
        "meta_mean_anomaly": 246.2777,
        "meta_ephemeris_type": 0,
        "meta_classification_type": "U",
        "meta_norad_cat_id": 30075,
        "meta_element_set_no": 999,
        "meta_rev_at_epoch": 96237,
        "meta_bstar": 1.7484245e-05,
        "meta_mean_motion_dot": -2.2e-07,
        "meta_mean_motion_ddot": 0,
        "tle_line1": "1 30075U 99025QC  25359.11524510 -.00000022  00000+0  17484-4 0  9995",
        "tle_line2": "2 30075  99.3598  49.5557 0091471 143.8132 246.2777 13.92537822962373"
      },
      "geometry": {
        "type": "Point",
        "coordinates": [
          43.75496413976235,
          36.0337192220511
        ]
      }
    },
    {
      "type": "Feature",
      "properties": {
        "norad_id": 30076,
        "name": "FENGYUN 1C DEB",
        "group": "fengyun-1c-debris",
        "lat": 26.19651427365762,
        "lon": -18.068512301169,
        "alt_km": 865.594029048184,
        "timestamp": "2025-12-26T04:40:06.060125+00:00",
        "meta_object_name": "FENGYUN 1C DEB",
        "meta_object_id": "1999-025QD",
        "meta_epoch": "2025-12-25T20:09:52.837632",
        "meta_mean_motion": 13.76299733,
        "meta_eccentricity": 0.01757206,
        "meta_inclination": 99.2395,
        "meta_ra_of_asc_node": 346.1808,
        "meta_arg_of_pericenter": 59.4781,
        "meta_mean_anomaly": 13.6344,
        "meta_ephemeris_type": 0,
        "meta_classification_type": "U",
        "meta_norad_cat_id": 30076,
        "meta_element_set_no": 999,
        "meta_rev_at_epoch": 95074,
        "meta_bstar": 0.0003334726,
        "meta_mean_motion_dot": 3.22e-06,
        "meta_mean_motion_ddot": 0,
        "tle_line1": "1 30076U 99025QD  25359.84019488  .00000322  00000+0  33347-3 0  9996",
        "tle_line2": "2 30076  99.2395 346.1808 0175720  59.4781  13.6344 13.76299733950747"
      },
      "geometry": {
        "type": "Point",
        "coordinates": [
          -18.068512301169,
          26.19651427365762
        ]
      }
    },
    {
      "type": "Feature",
      "properties": {
        "norad_id": 30077,
        "name": "FENGYUN 1C DEB",
        "group": "fengyun-1c-debris",
        "lat": 0.33310683653723083,
        "lon": 15.37711452233139,
        "alt_km": 882.9859661721348,
        "timestamp": "2025-12-26T04:40:06.060136+00:00",
        "meta_object_name": "FENGYUN 1C DEB",
        "meta_object_id": "1999-025QE",
        "meta_epoch": "2025-12-25T22:10:19.363872",
        "meta_mean_motion": 14.07080822,
        "meta_eccentricity": 0.00207143,
        "meta_inclination": 98.7574,
        "meta_ra_of_asc_node": 15.1663,
        "meta_arg_of_pericenter": 225.3782,
        "meta_mean_anomaly": 204.5483,
        "meta_ephemeris_type": 0,
        "meta_classification_type": "U",
        "meta_norad_cat_id": 30077,
        "meta_element_set_no": 999,
        "meta_rev_at_epoch": 97298,
        "meta_bstar": 0.00013343469,
        "meta_mean_motion_dot": 1.81e-06,
        "meta_mean_motion_ddot": 0,
        "tle_line1": "1 30077U 99025QE  25359.92383523  .00000181  00000+0  13343-3 0  9997",
        "tle_line2": "2 30077  98.7574  15.1663 0020714 225.3782 204.5483 14.07080822972987"
      },
      "geometry": {
        "type": "Point",
        "coordinates": [
          15.37711452233139,
          0.33310683653723083
        ]
      }
    },
    {
      "type": "Feature",
      "properties": {
        "norad_id": 30078,
        "name": "FENGYUN 1C DEB",
        "group": "fengyun-1c-debris",
        "lat": -50.32477166790397,
        "lon": 85.90829717374865,
        "alt_km": 806.428835572754,
        "timestamp": "2025-12-26T04:40:06.060146+00:00",
        "meta_object_name": "FENGYUN 1C DEB",
        "meta_object_id": "1999-025QF",
        "meta_epoch": "2025-12-25T21:01:35.845248",
        "meta_mean_motion": 14.23208476,
        "meta_eccentricity": 0.00535458,
        "meta_inclination": 98.8315,
        "meta_ra_of_asc_node": 74.7861,
        "meta_arg_of_pericenter": 242.3923,
        "meta_mean_anomaly": 235.5119,
        "meta_ephemeris_type": 0,
        "meta_classification_type": "U",
        "meta_norad_cat_id": 30078,
        "meta_element_set_no": 999,
        "meta_rev_at_epoch": 97300,
        "meta_bstar": 0.0013269858,
        "meta_mean_motion_dot": 3.001e-05,
        "meta_mean_motion_ddot": 0,
        "tle_line1": "1 30078U 99025QF  25359.87610932  .00003001  00000+0  13270-2 0  9991",
        "tle_line2": "2 30078  98.8315  74.7861 0053545 242.3923 235.5119 14.23208476973006"
      },
      "geometry": {
        "type": "Point",
        "coordinates": [
          85.90829717374865,
          -50.32477166790397
        ]
      }
    },
    {
      "type": "Feature",
      "properties": {
        "norad_id": 30079,
        "name": "FENGYUN 1C DEB",
        "group": "fengyun-1c-debris",
        "lat": 42.488335254103134,
        "lon": 47.20407142757851,
        "alt_km": 936.0798929052335,
        "timestamp": "2025-12-26T04:40:06.060157+00:00",
        "meta_object_name": "FENGYUN 1C DEB",
        "meta_object_id": "1999-025QG",
        "meta_epoch": "2025-12-25T15:22:38.571744",
        "meta_mean_motion": 14.00800677,
        "meta_eccentricity": 0.0085099,
        "meta_inclination": 99.0325,
        "meta_ra_of_asc_node": 55.0343,
        "meta_arg_of_pericenter": 262.6747,
        "meta_mean_anomaly": 228.7841,
        "meta_ephemeris_type": 0,
        "meta_classification_type": "U",
        "meta_norad_cat_id": 30079,
        "meta_element_set_no": 999,
        "meta_rev_at_epoch": 96718,
        "meta_bstar": 0.0001489,
        "meta_mean_motion_dot": 1.84e-06,
        "meta_mean_motion_ddot": 0,
        "tle_line1": "1 30079U 99025QG  25359.64072421  .00000184  00000+0  14890-3 0  9991",
        "tle_line2": "2 30079  99.0325  55.0343 0085099 262.6747 228.7841 14.00800677967180"
      },
      "geometry": {
        "type": "Point",
        "coordinates": [
          47.20407142757851,
          42.488335254103134
        ]
      }
    }
  ]
}